HELIOS 2A               
1 28492U 04049A   23137.45388089  .00002611  00000+0  24589-3 0  9993
2 28492  98.2798 102.1978 0015433  68.2011 292.0848 14.94721662984985
SPIRALE A               
1 33751U 09008C   23137.37702425  .00000323  00000+0  88574-3 0  9994
2 33751   2.0506 299.9411 5485110 156.9988 241.7370  4.59011830210063
SPIRALE B               
1 33752U 09008D   23136.07800086  .00013468  00000+0  21200-2 0  9999
2 33752   2.1244 303.5244 6848176 141.9324 294.5932  2.85403413134518
SAPPHIRE                
1 39088U 13009C   23136.78882021  .00000167  00000+0  74566-4 0  9997
2 39088  98.4163 329.0209 0011527  11.8925 348.2531 14.34450514534906
